STARLINK-30824          
1 58176U 23167B   26181.48334630 -.00000172  00000+0  32799-5 0  9990
2 58176  43.0001 226.5608 0001081 283.8392  76.2339 15.27574080148238
STARLINK-30791          
1 58177U 23167C   26181.51917996 -.00000520  00000+0 -93774-5 0  9995
2 58177  43.0043 225.9649 0001523 283.6608  76.4074 15.27572857148241
STARLINK-30810          
1 58178U 23167D   26180.59091738  .00000406  00000+0  24298-4 0  9995
2 58178  43.0026 231.0514 0001513 293.5659  66.5034 15.27578947148104
STARLINK-30819          
1 58179U 23167E   26180.49227849  .00000976  00000+0  44995-4 0  9997
2 58179  42.9993 232.0201 0001290 278.1111  81.9594 15.27572961148083
STARLINK-30806          
1 58180U 23167F   26181.52700853  .00060885  00000+0  17923-2 0  9999
2 58180  42.9969 224.2844 0006402  41.1506 318.9830 15.34214029148262
STARLINK-30821          
1 58181U 23167G   26180.61147624  .00001123  00000+0  50346-4 0  9998
2 58181  43.0000 231.1951 0001455 297.3018  62.7686 15.27579926148099
STARLINK-30778          
1 58182U 23167H   26181.52944105  .00001863  00000+0  77184-4 0  9999
2 58182  43.0019 226.0359 0001456 273.7998  86.2687 15.27588860148247
STARLINK-30809          
1 58183U 23167J   26181.49876818  .00000528  00000+0  28716-4 0  9995
2 58183  43.0013 226.6683 0000992 281.6369  78.4371 15.27574966148236
STARLINK-30801          
1 58184U 23167K   26180.84875549 -.00000283  00000+0 -75883-6 0  9993
2 58184  43.0007 230.3890 0001176 269.0103  91.0614 15.27580025148136
STARLINK-30793          
1 58185U 23167L   26181.47178173  .00000750  00000+0  36765-4 0  9994
2 58185  43.0014 226.4616 0001669 270.4062  89.6599 15.27578626148234
STARLINK-30755          
1 58186U 23167M   26180.86402705  .00000341  00000+0  21920-4 0  9991
2 58186  43.0028 229.6495 0001839 274.4923  85.5719 15.27583005148145
STARLINK-30760          
1 58187U 23167N   26180.82176800  .00000336  00000+0  21751-4 0  9998
2 58187  43.0012 230.1824 0001259 280.2283  79.8427 15.27578556148138
STARLINK-30826          
1 58188U 23167P   26180.62045795  .00003690  00000+0  14348-3 0  9994
2 58188  43.0001 231.2548 0001467 266.4517  93.6167 15.27593697148104
STARLINK-30796          
1 58189U 23167Q   26180.86017447 -.00006986  00000+0 -24450-3 0  9992
2 58189  42.9986 229.6173 0002045 247.4883 112.5752 15.27587244148144
STARLINK-30820          
1 58190U 23167R   26181.51017947  .00000732  00000+0  36133-4 0  9995
2 58190  43.0032 225.8966 0001433 273.8431  86.2257 15.27577973148246
STARLINK-30785          
1 58191U 23167S   26181.48207303  .00002611  00000+0  10440-3 0  9999
2 58191  42.9992 226.5394 0001372 287.4705  72.5996 15.27568437148232
STARLINK-30807          
1 58192U 23167T   26181.53974454  .00017154  00000+0  63109-3 0  9992
2 58192  42.9989 226.1162 0002326 257.6821 102.3770 15.27597646148243
STARLINK-30822          
1 58193U 23167U   26181.49233875 -.00000667  00000+0 -14715-4 0  9996
2 58193  43.0009 226.6155 0000889 280.4646  79.6105 15.27577463148239
STARLINK-30830          
1 58194U 23167V   26181.51146623  .00001750  00000+0  73095-4 0  9992
2 58194  43.0025 225.8853 0000722 294.5966  65.4810 15.27586161148243
STARLINK-30827          
1 58195U 23167W   26181.50761423  .00000437  00000+0  25423-4 0  9996
2 58195  43.0030 225.8798 0001254 272.0500  88.0208 15.27576732148249
STARLINK-30798          
1 58196U 23167X   26179.65509624  .00002463  00000+0  99028-4 0  9996
2 58196  42.9996 236.9088 0001337 271.6567  88.4131 15.27572866147954
STARLINK-30762          
1 58197U 23167Y   26181.49619391  .00000095  00000+0  12975-4 0  9990
2 58197  42.9993 226.6434 0001237 270.1665  89.9045 15.27576456148236
TIANHUI 5A              
1 58199U 23168A   26180.45325976  .00000419  00000+0  52076-4 0  9997
2 58199  97.8209 187.6523 0001555  89.3661 270.7733 14.87580286144423
TIANHUI 5B              
1 58201U 23168C   26180.52052580  .00000400  00000+0  50023-4 0  9997
2 58201  97.8210 187.7231 0002155  95.5791 264.5671 14.87580135144432
STARLINK-30800          
1 58206U 23170A   26180.75264673  .00000942  00000+0  43745-4 0  9992
2 58206  43.0032 281.7307 0001583 262.9965  97.0707 15.27579563147438
STARLINK-30845          
1 58207U 23170B   26181.06814667  .00019874  00000+0  13048-2 0  9997
2 58207  43.0002 302.7824 0002994 306.0126  54.0440 15.07298175147218
STARLINK-30841          
1 58208U 23170C   26180.74236766 -.00001674  00000+0 -51303-4 0  9999
2 58208  43.0032 281.6451 0001867 272.4387  87.6250 15.27581472147438
STARLINK-30839          
1 58209U 23170D   26180.96150437 -.00001469  00000+0 -43831-4 0  9993
2 58209  43.0037 279.8650 0003513 266.7766  93.2683 15.27582722147477
STARLINK-30846          
1 58210U 23170E   26180.69498047 -.00000007  00000+0  92796-5 0  9998
2 58210  43.0031 282.1567 0001439 261.7461  98.3228 15.27563831147425
