OBJECT_NAME,OBJECT_ID,EPOCH,MEAN_MOTION,ECCENTRICITY,INCLINATION,RA_OF_ASC_NODE,ARG_OF_PERICENTER,MEAN_ANOMALY,EPHEMERIS_TYPE,CLASSIFICATION_TYPE,NORAD_CAT_ID,ELEMENT_SET_NO,REV_AT_EPOCH,BSTAR,MEAN_MOTION_DOT,MEAN_MOTION_DDOT
STARLINK-30824,2023-167B,2026-06-30T11:36:01.120320,15.27574080,.0001081,43.0001,226.5608,283.8392,76.2339,0,U,58176,999,14823,.3279929E-5,-.172E-5,0
STARLINK-30791,2023-167C,2026-06-30T12:27:37.148544,15.27572857,.00015235,43.0043,225.9649,283.6608,76.4074,0,U,58177,999,14824,-.9377391E-5,-.52E-5,0
STARLINK-30810,2023-167D,2026-06-29T14:10:55.261632,15.27578947,.00015134,43.0026,231.0514,293.5659,66.5034,0,U,58178,999,14810,.24297589E-4,.406E-5,0
STARLINK-30819,2023-167E,2026-06-29T11:48:52.861536,15.27572961,.00012903,42.9993,232.0201,278.1111,81.9594,0,U,58179,999,14808,.4499479E-4,.976E-5,0
STARLINK-30806,2023-167F,2026-06-30T12:38:53.536992,15.34214029,.00064025,42.9969,224.2844,41.1506,318.9830,0,U,58180,999,14826,.17923044E-2,.60885E-3,0
STARLINK-30821,2023-167G,2026-06-29T14:40:31.547136,15.27579926,.00014554,43.0000,231.1951,297.3018,62.7686,0,U,58181,999,14809,.50346317E-4,.1123E-4,0
STARLINK-30778,2023-167H,2026-06-30T12:42:23.706720,15.27588860,.00014563,43.0019,226.0359,273.7998,86.2687,0,U,58182,999,14824,.77183704E-4,.1863E-4,0
STARLINK-30809,2023-167J,2026-06-30T11:58:13.570752,15.27574966,.00009921,43.0013,226.6683,281.6369,78.4371,0,U,58183,999,14823,.28715689E-4,.528E-5,0
STARLINK-30801,2023-167K,2026-06-29T20:22:12.474336,15.27580025,.0001176,43.0007,230.3890,269.0103,91.0614,0,U,58184,999,14813,-.758829E-6,-.283E-5,0
STARLINK-30793,2023-167L,2026-06-30T11:19:21.941472,15.27578626,.00016693,43.0014,226.4616,270.4062,89.6599,0,U,58185,999,14823,.36765013E-4,.75E-5,0
STARLINK-30755,2023-167M,2026-06-29T20:44:11.937120,15.27583005,.00018391,43.0028,229.6495,274.4923,85.5719,0,U,58186,999,14814,.21920208E-4,.341E-5,0
STARLINK-30760,2023-167N,2026-06-29T19:43:20.755200,15.27578556,.00012597,43.0012,230.1824,280.2283,79.8427,0,U,58187,999,14813,.21751192E-4,.336E-5,0
STARLINK-30826,2023-167P,2026-06-29T14:53:27.566880,15.27593697,.00014677,43.0001,231.2548,266.4517,93.6167,0,U,58188,999,14810,.14347661E-3,.369E-4,0
STARLINK-30796,2023-167Q,2026-06-29T20:38:39.074208,15.27587244,.00020453,42.9986,229.6173,247.4883,112.5752,0,U,58189,999,14814,-.24450461E-3,-.6986E-4,0
STARLINK-30820,2023-167R,2026-06-30T12:14:39.506208,15.27577973,.0001433,43.0032,225.8966,273.8431,86.2257,0,U,58190,999,14824,.36133109E-4,.732E-5,0
STARLINK-30785,2023-167S,2026-06-30T11:34:11.109792,15.27568437,.00013721,42.9992,226.5394,287.4705,72.5996,0,U,58191,999,14823,.10440405E-3,.2611E-4,0
STARLINK-30807,2023-167T,2026-06-30T12:57:13.928256,15.27597646,.00023269,42.9989,226.1162,257.6821,102.3770,0,U,58192,999,14824,.63109193E-3,.17154E-3,0
STARLINK-30822,2023-167U,2026-06-30T11:48:58.068000,15.27577463,.0000889,43.0009,226.6155,280.4646,79.6105,0,U,58193,999,14823,-.14714999E-4,-.667E-5,0
STARLINK-30830,2023-167V,2026-06-30T12:16:30.682272,15.27586161,.0000722,43.0025,225.8853,294.5966,65.4810,0,U,58194,999,14824,.73095406E-4,.175E-4,0
STARLINK-30827,2023-167W,2026-06-30T12:10:57.869472,15.27576732,.00012541,43.0030,225.8798,272.0500,88.0208,0,U,58195,999,14824,.25422936E-4,.437E-5,0
STARLINK-30798,2023-167X,2026-06-28T15:43:20.315136,15.27572866,.00013374,42.9996,236.9088,271.6567,88.4131,0,U,58196,999,14795,.99027953E-4,.2463E-4,0
STARLINK-30762,2023-167Y,2026-06-30T11:54:31.153824,15.27576456,.0001237,42.9993,226.6434,270.1665,89.9045,0,U,58197,999,14823,.12975239E-4,.95E-6,0
TIANHUI 5A,2023-168A,2026-06-29T10:52:41.643264,14.87580286,.00015551,97.8209,187.6523,89.3661,270.7733,0,U,58199,999,14442,.52075534E-4,.419E-5,0
TIANHUI 5B,2023-168C,2026-06-29T12:29:33.429120,14.87580135,.00021554,97.8210,187.7231,95.5791,264.5671,0,U,58201,999,14443,.50023256E-4,.4E-5,0
STARLINK-30800,2023-170A,2026-06-29T18:03:48.677472,15.27579563,.00015834,43.0032,281.7307,262.9965,97.0707,0,U,58206,999,14743,.43744693E-4,.942E-5,0
STARLINK-30845,2023-170B,2026-06-30T01:38:07.872288,15.07298175,.0002994,43.0002,302.7824,306.0126,54.0440,0,U,58207,999,14721,.13047963E-2,.19874E-3,0
STARLINK-30841,2023-170C,2026-06-29T17:49:00.565824,15.27581472,.00018675,43.0032,281.6451,272.4387,87.6250,0,U,58208,999,14743,-.51302708E-4,-.1674E-4,0
STARLINK-30839,2023-170D,2026-06-29T23:04:33.977568,15.27582722,.00035131,43.0037,279.8650,266.7766,93.2683,0,U,58209,999,14747,-.43831124E-4,-.1469E-4,0
STARLINK-30846,2023-170E,2026-06-29T16:40:46.312608,15.27563831,.00014395,43.0031,282.1567,261.7461,98.3228,0,U,58210,999,14742,.9279628E-5,-.7E-7,0
